NORAD_CAT_ID,OBJECT_NAME,OBJECT_TYPE,EPOCH,MEAN_MOTION,ECCENTRICITY,INCLINATION,RA_OF_ASC_NODE,ARG_OF_PERICENTER,MEAN_ANOMALY,BSTAR,MEAN_MOTION_DOT,MEAN_MOTION_DDOT,TLE_LINE0,TLE_LINE1,TLE_LINE2,SEMIMAJOR_AXIS,PERIOD,APOGEE,PERIGEE,DECAYED
55773.0,STARLINK-5833,PAYLOAD,2023-06-21 22:00:01,15.38163912,0.000344,69.9982,206.6874,270.5471,114.7169,-0.023958,-0.00835502,0.0,0 STARLINK-5833,1 55773U 23028AJ  23172.91668981 -.00835502  00000-0 -23958-1 0  9998,2 55773  69.9982 206.6874 0003440 270.5471 114.7169 15.38163912 17929,6829.676,93.618,453.89,449.192,0.0
55773.0,STARLINK-5833,PAYLOAD,2023-06-22 04:00:00,15.37758014,0.0003447,69.9986,206.0176,269.0658,59.8644,-0.028756,-0.009765,0.0,0 STARLINK-5833,1 55773U 23028AJ  23173.16667824 -.00976500  00000-0 -28756-1 0  9996,2 55773  69.9986 206.0176 0003447 269.0658  59.8644 15.37758014 17962,6830.878,93.643,455.097,450.388,0.0
55773.0,STARLINK-5833,PAYLOAD,2023-06-22 14:00:01,15.36915269,0.0003308,69.9982,204.9019,278.0854,196.132,-0.027862,-0.00925053,0.0,0 STARLINK-5833,1 55773U 23028AJ  23173.58334491 -.00925053  00000-0 -27862-1 0  9997,2 55773  69.9982 204.9019 0003308 278.0854 196.1320 15.36915269 18036,6833.375,93.694,457.5,452.979,0.0
55773.0,STARLINK-5833,PAYLOAD,2023-06-23 14:00:01,15.34959941,0.0003215,69.9984,202.2302,273.9781,327.9286,-0.029923,-0.00932177,0.0,0 STARLINK-5833,1 55773U 23028AJ  23174.58334491 -.00932177  00000-0 -29923-1 0  9993,2 55773  69.9984 202.2302 0003215 273.9781 327.9286 15.34959941 18188,6839.176,93.814,463.24,458.843,0.0
55773.0,STARLINK-5833,PAYLOAD,2023-06-24 22:00:00,15.32305095,0.0003295,69.9987,198.6803,268.8958,132.3217,-0.029423,-0.00849281,0.0,0 STARLINK-5833,1 55773U 23028AJ  23175.91667824 -.00849281  00000-0 -29423-1 0  9998,2 55773  69.9987 198.6803 0003295 268.8958 132.3217 15.32305095 18389,6847.074,93.976,471.195,466.683,0.0
55773.0,STARLINK-5833,PAYLOAD,2023-06-25 06:00:00,15.31680445,0.0003251,69.999,197.7949,271.5995,167.4871,-0.032654,-0.00918131,0.0,0 STARLINK-5833,1 55773U 23028AJ  23176.25001157 -.00918131  00000-0 -32654-1 0  9998,2 55773  69.9990 197.7949 0003251 271.5995 167.4871 15.31680445 18444,6848.935,94.014,473.027,468.574,0.0
55773.0,STARLINK-5833,PAYLOAD,2023-06-26 14:00:01,15.29098659,0.0003038,69.9986,194.2631,273.7662,308.9589,-0.036696,-0.00961463,0.0,0 STARLINK-5833,1 55773U 23028AJ  23177.58334491 -.00961463  00000-0 -36696-1 0  9991,2 55773  69.9986 194.2631 0003038 273.7662 308.9589 15.29098659 18644,6856.642,94.173,480.59,476.424,0.0
55773.0,STARLINK-5833,PAYLOAD,2023-06-27 02:00:01,15.28132319,0.0003172,69.999,192.9423,270.2955,183.0687,-0.038466,-0.0097712,0.0,0 STARLINK-5833,1 55773U 23028AJ  23178.08334491 -.00977120  00000-0 -38466-1 0  9991,2 55773  69.9990 192.9423 0003172 270.2955 183.0687 15.28132319 18720,6859.533,94.233,483.574,479.222,0.0
55773.0,STARLINK-5833,PAYLOAD,2023-06-27 14:00:01,15.27141795,0.000319,69.9985,191.6233,274.0056,48.2459,-0.039033,-0.00963081,0.0,0 STARLINK-5833,1 55773U 23028AJ  23178.58334491 -.00963081  00000-0 -39033-1 0  9998,2 55773  69.9985 191.6233 0003190 274.0056  48.2459 15.27141795 18796,6862.499,94.294,486.553,482.174,0.0
55773.0,STARLINK-5833,PAYLOAD,2023-06-28 06:00:00,15.25799155,0.0003227,69.9989,189.868,272.7498,111.9588,-0.038225,-0.00898491,0.0,0 STARLINK-5833,1 55773U 23028AJ  23179.25001157 -.00898491  00000-0 -38225-1 0  9997,2 55773  69.9989 189.8680 0003227 272.7498 111.9588 15.25799155 18890,6866.524,94.377,490.605,486.173,0.0
55773.0,STARLINK-5833,PAYLOAD,2023-06-28 14:00:01,15.25183763,0.0003179,69.9984,188.9914,276.2561,138.4812,-0.041328,-0.00961154,0.0,0 STARLINK-5833,1 55773U 23028AJ  23179.58334491 -.00961154  00000-0 -41328-1 0  9998,2 55773  69.9984 188.9914 0003179 276.2561 138.4812 15.25183763 18943,6868.371,94.415,492.419,488.052,0.0
55773.0,STARLINK-5833,PAYLOAD,2023-06-29 22:00:00,15.22548951,0.0003047,69.9983,185.4942,268.3286,258.7757,-0.041893,-0.00904756,0.0,0 STARLINK-5833,1 55773U 23028AJ  23180.91667824 -.00904756  00000-0 -41893-1 0  9998,2 55773  69.9983 185.4942 0003047 268.3286 258.7757 15.22548951 19154,6876.292,94.578,500.253,496.062,0.0
55773.0,STARLINK-5833,PAYLOAD,2023-06-30 22:00:00,15.20595714,0.0003108,69.998,182.8804,265.6055,337.5552,-0.044697,-0.00910879,0.0,0 STARLINK-5833,1 55773U 23028AJ  23181.91667824 -.00910879  00000-0 -44697-1 0  9997,2 55773  69.9980 182.8804 0003108 265.6055 337.5552 15.20595714 19304,6882.18,94.7,506.184,501.906,0.0
55773.0,STARLINK-5833,PAYLOAD,2023-07-01 14:00:01,15.1931687,0.0003166,69.9977,181.1421,271.5988,18.3518,-0.049725,-0.00971299,0.0,0 STARLINK-5833,1 55773U 23028AJ  23182.58334491 -.00971299  00000-0 -49725-1 0  9992,2 55773  69.9977 181.1421 0003166 271.5988  18.3518 15.19316870 19401,6886.041,94.779,510.086,505.726,0.0
55773.0,STARLINK-5833,PAYLOAD,2023-07-02 04:00:00,15.18149157,0.0003104,69.9982,179.6241,268.3378,330.0039,-0.049266,-0.00933258,0.0,0 STARLINK-5833,1 55773U 23028AJ  23183.16667824 -.00933258  00000-0 -49266-1 0  9999,2 55773  69.9982 179.6241 0003104 268.3378 330.0039 15.18149157 19490,6889.572,94.852,513.575,509.298,0.0
55773.0,STARLINK-5833,PAYLOAD,2023-07-04 06:00:02,15.14051473,0.0003068,69.9985,174.2246,271.4821,174.4323,-0.052834,-0.00893295,0.0,0 STARLINK-5833,1 55773U 23028AJ  23185.25002315 -.00893295  00000-0 -52834-1 0  9990,2 55773  69.9985 174.2246 0003068 271.4821 174.4323 15.14051473 19817,6901.997,95.109,525.979,521.744,0.0
55773.0,STARLINK-5833,PAYLOAD,2023-07-04 22:00:01,15.12779675,0.0003048,69.9987,172.5039,265.1609,211.8839,-0.05717,-0.00929741,0.0,0 STARLINK-5833,1 55773U 23028AJ  23185.91668981 -.00929741  00000-0 -57170-1 0  9994,2 55773  69.9987 172.5039 0003048 265.1609 211.8839 15.12779675 19910,6905.865,95.189,529.834,525.625,0.0
55773.0,STARLINK-5833,PAYLOAD,2023-07-05 22:00:01,15.10827319,0.0003015,69.9992,169.9294,264.7099,253.1885,-0.060997,-0.00938666,0.0,0 STARLINK-5833,1 55773U 23028AJ  23186.91668981 -.00938666  00000-0 -60997-1 0  9992,2 55773  69.9992 169.9294 0003015 264.7099 253.1885 15.10827319 20066,6911.813,95.312,535.762,531.594,0.0
55773.0,STARLINK-5833,PAYLOAD,2023-07-07 06:00:00,15.0817488,0.0002923,69.9996,166.5089,272.7468,288.629,-0.061174,-0.00879463,0.0,0 STARLINK-5833,1 55773U 23028AJ  23188.25001157 -.00879463  00000-0 -61174-1 0  9994,2 55773  69.9996 166.5089 0002923 272.7468 288.6290 15.08174880 20261,6919.914,95.48,543.802,539.756,0.0
55773.0,STARLINK-5833,PAYLOAD,2023-07-07 22:00:00,15.06920628,0.0003004,69.9998,164.8038,265.5733,312.848,-0.068726,-0.00949124,0.0,0 STARLINK-5833,1 55773U 23028AJ  23188.91667824 -.00949124  00000-0 -68726-1 0  9998,2 55773  69.9998 164.8038 0003004 265.5733 312.8480 15.06920628 20363,6923.753,95.559,547.698,543.538,0.0
55773.0,STARLINK-5833,PAYLOAD,2023-07-08 22:00:00,15.04966738,0.0003035,69.9998,162.2526,265.4349,332.7192,-0.072919,-0.00954722,0.0,0 STARLINK-5833,1 55773U 23028AJ  23189.91667824 -.00954722  00000-0 -72919-1 0  9998,2 55773  69.9998 162.2526 0003035 265.4349 332.7192 15.04966738 20511,6929.745,95.683,553.713,549.507,0.0
55773.0,STARLINK-5833,PAYLOAD,2023-07-09 22:00:00,15.03012435,0.0003053,69.9996,159.7092,265.7613,345.0849,-0.077262,-0.0097083,0.0,0 STARLINK-5833,1 55773U 23028AJ  23190.91667824 -.00970830  00000-0 -77262-1 0  9994,2 55773  69.9996 159.7092 0003053 265.7613 345.0849 15.03012435 20662,6935.75,95.808,559.733,555.498,0.0
55773.0,STARLINK-5833,PAYLOAD,2023-07-11 14:00:01,14.99542353,0.0002996,69.9991,155.4871,273.3181,343.0818,-0.030827,-0.00360816,0.0,0 STARLINK-5833,1 55773U 23028AJ  23192.58334491 -.00360816  00000-0 -30827-1 0  9993,2 55773  69.9991 155.4871 0002996 273.3181 343.0818 14.99542353 20918,6946.446,96.029,570.392,566.23,0.0
55773.0,STARLINK-5833,PAYLOAD,2023-07-11 22:00:00,14.99321179,0.000306,69.9996,154.6452,268.6934,346.4701,-0.0016723,-0.00020507,0.0,0 STARLINK-5833,1 55773U 23028AJ  23192.91667824 -.00020507  00000-0 -16723-2 0  9999,2 55773  69.9996 154.6452 0003060 268.6934 346.4701 14.99321179 20969,6947.129,96.043,571.12,566.869,0.0
55773.0,STARLINK-5833,PAYLOAD,2023-07-12 22:00:00,14.99312452,0.0002967,70.0003,152.12,266.7223,344.3901,0.00028522,3.399e-05,0.0,0 STARLINK-5833,1 55773U 23028AJ  23193.91667824  .00003399  00000-0  28522-3 0  9999,2 55773  70.0003 152.1200 0002967 266.7223 344.3901 14.99312452 21111,6947.156,96.044,571.083,566.96,0.0
55773.0,STARLINK-5833,PAYLOAD,2023-07-13 18:00:00,14.99256707,0.0002999,70.0,150.0157,267.6815,160.0676,0.0062364,0.00076969,0.0,0 STARLINK-5833,1 55773U 23028AJ  23194.75001157  .00076969  00000-0  62364-2 0  9997,2 55773  70.0000 150.0157 0002999 267.6815 160.0676 14.99256707 21244,6947.329,96.048,571.277,567.11,0.0
55773.0,STARLINK-5833,PAYLOAD,2023-07-14 04:00:01,14.99300106,0.0003025,70.0002,148.9636,272.3501,243.7544,-0.00073494,-9.075e-05,0.0,0 STARLINK-5833,1 55773U 23028AJ  23195.16668981 -.00009075  00000-0 -73494-3 0  9990,2 55773  70.0002 148.9636 0003025 272.3501 243.7544 14.99300106 21303,6947.195,96.045,571.161,566.958,0.0
55773.0,STARLINK-5833,PAYLOAD,2023-07-14 22:00:00,14.99330297,0.0003081,70.0007,147.0697,265.3224,337.6732,-0.00058899,-7.299e-05,0.0,0 STARLINK-5833,1 55773U 23028AJ  23195.91667824 -.00007299  00000-0 -58899-3 0  9996,2 55773  70.0007 147.0697 0003081 265.3224 337.6732 14.99330297 21419,6947.101,96.043,571.107,566.826,0.0
55773.0,STARLINK-5833,PAYLOAD,2023-07-15 14:31:58,14.99299764,0.0002665,70.0005,145.3327,276.2462,83.8394,8.0027e-06,4e-08,0.0,0 STARLINK-5833,1 55773U 23028AJ  23196.60554265  .00000004  00000-0  80027-5 0  9992,2 55773  70.0005 145.3327 0002665 276.2462  83.8394 14.99299764 21529,6947.196,96.045,570.912,567.209,0.0
55773.0,STARLINK-5833,PAYLOAD,2023-07-16 03:20:33,14.99285234,0.0002741,69.9996,143.9831,267.2633,92.8213,0.00015676,1.824e-05,0.0,0 STARLINK-5833,1 55773U 23028AJ  23197.13928214  .00001824  00000-0  15676-3 0  9997,2 55773  69.9996 143.9831 0002741 267.2633  92.8213 14.99285234 21600,6947.24,96.046,571.01,567.201,0.0
